ELYSIUM STAR 2 & LFF    
1 43760U 18099C   24194.18665014  .00044533  00000+0  16163-2 0  9995
2 43760  97.5144 261.9650 0007544 176.4603 183.6691 15.28153741307054
